<?xml version="1.0" encoding="UTF-8"?>
<kml xmlns="http://www.opengis.net/kml/2.2">
<Document>
  <name>Combined navigation (1 Hz)</name>
  <description>Uniformly sampled WGS84 navigation positions. Heights in metres; clampToGround display.</description>
  <Style id="track"><LineStyle><color>ffff5500</color><width>3</width></LineStyle></Style>
  <Style id="start"><IconStyle><color>ff00ff00</color></IconStyle></Style>
  <Style id="end"><IconStyle><color>ff0000ff</color></IconStyle></Style>
  <ExtendedData>
    <Data name="sample_period_s"><value>1</value></Data>
    <Data name="point_count"><value>619</value></Data>
    <Data name="time_start_s"><value>269378.000000000</value></Data>
    <Data name="time_end_s"><value>269996.000000000</value></Data>
  </ExtendedData>
  <Placemark><name>Combined navigation (1 Hz)</name><styleUrl>#track</styleUrl>
    <LineString><tessellate>1</tessellate><altitudeMode>clampToGround</altitudeMode>
      <coordinates>
        114.3665903869,30.5391422650,47.1177
        114.3665902318,30.5391424619,47.0831
        114.3665926748,30.5391402785,46.6972
        114.3665926497,30.5391400787,46.6614
        114.3665929928,30.5391400135,46.7228
        114.3665929867,30.5391400165,46.7211
        114.3665932722,30.5391397821,46.7416
        114.3665932501,30.5391397849,46.7391
        114.3665934726,30.5391395601,46.7799
        114.3665935979,30.5391393690,46.8413
        114.3665935761,30.5391393652,46.8408
        114.3665937342,30.5391392174,46.8963
        114.3665937139,30.5391392136,46.8958
        114.3665938144,30.5391390750,46.9640
        114.3665937990,30.5391390686,46.9638
        114.3665938893,30.5391389423,47.0294
        114.3665939252,30.5391388337,47.1021
        114.3665939078,30.5391388220,47.1019
        114.3665939203,30.5391387252,47.1793
        114.3665939182,30.5391387207,47.1792
        114.3665939287,30.5391386355,47.2635
        114.3665939282,30.5391386305,47.2669
        114.3665938962,30.5391385622,47.3532
        114.3665938305,30.5391385206,47.4464
        114.3665938210,30.5391385126,47.4470
        114.3665937563,30.5391384852,47.5419
        114.3665937551,30.5391384862,47.5418
        114.3665936707,30.5391384722,47.6371
        114.3665936769,30.5391384799,47.6371
        114.3665935630,30.5391384642,47.7309
        114.3665935672,30.5391384708,47.7309
        114.3665934491,30.5391384926,47.8265
        114.3665934518,30.5391384984,47.8262
        114.3665933363,30.5391385131,47.9165
        114.3665933347,30.5391385122,47.9164
        114.3665932042,30.5391385291,48.0027
        114.3665930611,30.5391385454,48.0884
        114.3665930509,30.5391385398,48.0887
        114.3665928887,30.5391385647,48.1718
        114.3665926436,30.5391386383,48.2354
        114.3665923251,30.5391387633,48.2758
        114.3665918976,30.5391389463,48.2964
        114.3665914133,30.5391391711,48.3012
        114.3665908641,30.5391394307,48.2966
        114.3665902791,30.5391397016,48.2840
        114.3665896462,30.5391399883,48.2659
        114.3665890182,30.5391402650,48.2416
        114.3665883984,30.5391405617,48.2132
        114.3665877800,30.5391408665,48.1824
        114.3665871748,30.5391411669,48.1510
        114.3665865848,30.5391414581,48.1171
        114.3665859963,30.5391417417,48.0813
        114.3665854249,30.5391420370,48.0446
        114.3665848825,30.5391423199,48.0081
        114.3665843436,30.5391426111,47.9707
        114.3665839113,30.5391429014,47.9324
        114.3665839201,30.5391431744,47.9008
        114.3665831126,30.5391435470,47.8447
        114.3665823696,30.5391438383,47.7823
        114.3665826469,30.5391416332,47.7203
        114.3665826415,30.5391373333,47.6490
        114.3665824514,30.5391320286,47.5707
        114.3665818348,30.5391273118,47.4862
        114.3665810453,30.5391229867,47.3982
        114.3665789427,30.5391195780,47.2827
        114.3665774305,30.5391161459,47.1411
        114.3665759577,30.5391156275,47.0422
        114.3665761132,30.5391132199,46.8734
        114.3665790006,30.5391137254,46.6682
        114.3665915194,30.5391135600,46.4535
        114.3666029593,30.5391046513,46.1202
        114.3666151702,30.5390996470,45.8003
        114.3666346447,30.5390941609,45.3551
        114.3666594116,30.5391001660,45.0360
        114.3666862006,30.5391087934,44.6606
        114.3667126218,30.5391243849,44.3003
        114.3667406090,30.5391446862,43.8974
        114.3667726967,30.5391656995,43.4372
        114.3668070622,30.5391860052,42.9454
        114.3668392944,30.5392030428,42.5113
        114.3668688108,30.5392169726,42.0506
        114.3668991449,30.5392341482,41.7175
        114.3669278104,30.5392577303,41.3452
        114.3669506882,30.5392886433,40.9839
        114.3669702170,30.5393254285,40.5599
        114.3669868043,30.5393684719,40.0548
        114.3669966349,30.5394151509,39.6570
        114.3670028518,30.5394657246,39.2078
        114.3670041856,30.5395182265,38.8270
        114.3669998305,30.5395727144,38.3752
        114.3669946361,30.5396307097,37.8624
        114.3669883965,30.5396900320,37.4863
        114.3669826328,30.5397515014,37.0147
        114.3669763240,30.5398156749,36.4631
        114.3669653785,30.5398817492,35.7612
        114.3669430959,30.5399459405,35.0224
        114.3669109100,30.5400080951,34.3985
        114.3668777752,30.5400739234,33.7353
        114.3668426586,30.5401448616,32.9305
        114.3668083036,30.5402208340,32.0077
        114.3667724794,30.5403008753,31.1544
        114.3667369785,30.5403832619,30.4702
        114.3667060937,30.5404692123,29.8537
        114.3666878305,30.5405591537,29.2020
        114.3666761945,30.5406498448,28.7165
        114.3666659339,30.5407414073,28.1939
        114.3666556068,30.5408321368,27.7803
        114.3666469183,30.5409224720,27.3793
        114.3666400722,30.5410109374,27.0041
        114.3666320446,30.5410996856,26.4980
        114.3666239544,30.5411860237,26.0615
        114.3666162793,30.5412716623,25.6179
        114.3666063579,30.5413561471,25.2323
        114.3665921193,30.5414329454,24.8746
        114.3665660266,30.5414936657,24.5795
        114.3665280322,30.5415338378,24.4056
        114.3664809465,30.5415586436,24.2326
        114.3664315158,30.5415723403,24.0703
        114.3663808978,30.5415768637,24.0016
        114.3663293072,30.5415799719,23.9618
        114.3662786944,30.5415850450,23.8893
        114.3662293689,30.5415952429,23.8374
        114.3661820751,30.5416076243,23.7789
        114.3661344708,30.5416212376,23.6860
        114.3660884610,30.5416362588,23.6391
        114.3660504448,30.5416629882,23.6032
        114.3660226166,30.5416997269,23.5196
        114.3660028207,30.5417464179,23.5199
        114.3659882564,30.5418018727,23.4655
        114.3659739674,30.5418607697,23.4783
        114.3659600546,30.5419203067,23.4821
        114.3659469131,30.5419804191,23.4479
        114.3659324647,30.5420406011,23.4825
        114.3659183422,30.5421015463,23.4376
        114.3659078189,30.5421623087,23.3631
        114.3658914302,30.5422207743,23.2631
        114.3658677236,30.5422763372,23.1308
        114.3658405595,30.5423325485,23.0322
        114.3658117631,30.5423897761,22.9622
        114.3657789995,30.5424481394,22.8388
        114.3657432382,30.5425071313,22.8094
        114.3657100421,30.5425677583,22.8490
        114.3656781042,30.5426280381,22.9847
        114.3656483898,30.5426888558,22.9444
        114.3656258384,30.5427327189,22.9906
        114.3656096614,30.5427691803,23.0542
        114.3655886695,30.5428115965,23.2172
        114.3655653609,30.5428598305,23.5228
        114.3655411289,30.5429141644,23.7147
        114.3655118869,30.5429695064,23.9592
        114.3654788167,30.5430261577,24.1708
        114.3654418580,30.5430813705,24.4787
        114.3654052444,30.5431369124,24.8612
        114.3653698339,30.5431918131,25.3658
        114.3653358778,30.5432469535,25.8119
        114.3653106856,30.5433053716,26.2096
        114.3652927035,30.5433652148,26.3004
        114.3652836164,30.5434247359,26.1335
        114.3652691408,30.5434821664,26.1783
        114.3652558089,30.5435353689,26.3514
        114.3652423867,30.5435732188,26.5820
        114.3652303264,30.5435976103,26.7444
        114.3652071029,30.5436180599,26.8977
        114.3651688766,30.5436313281,27.1174
        114.3651199913,30.5436336945,27.3658
        114.3650647112,30.5436285856,27.5798
        114.3650055259,30.5436182957,27.7393
        114.3649453352,30.5436044849,28.0693
        114.3648834501,30.5435881617,28.3405
        114.3648181125,30.5435744010,28.7085
        114.3647517572,30.5435686889,29.0491
        114.3646848393,30.5435700008,29.3349
        114.3646159726,30.5435804919,29.5395
        114.3645471570,30.5435999724,29.6898
        114.3644783293,30.5436213294,29.9030
        114.3644117959,30.5436446719,30.1519
        114.3643454323,30.5436670405,30.5032
        114.3642802111,30.5436886811,30.8865
        114.3642128447,30.5437083416,31.3198
        114.3641426976,30.5437252215,31.7414
        114.3640709657,30.5437389856,32.2295
        114.3639987043,30.5437494654,32.7699
        114.3639259810,30.5437559154,33.3336
        114.3638541852,30.5437594704,33.9195
        114.3637842942,30.5437570837,34.4885
        114.3637155845,30.5437472719,35.0461
        114.3636483338,30.5437330648,35.5948
        114.3635806270,30.5437152990,36.2166
        114.3635127281,30.5436990960,36.8553
        114.3634469754,30.5436808346,37.4638
        114.3633855268,30.5436571334,38.0983
        114.3633255161,30.5436301221,38.7198
        114.3632682316,30.5436024336,39.4350
        114.3632134258,30.5435727660,40.1258
        114.3631609949,30.5435428345,40.7134
        114.3631103820,30.5435112504,41.3030
        114.3630600038,30.5434808360,41.8043
        114.3630087145,30.5434512718,42.2299
        114.3629597282,30.5434183082,42.6707
        114.3629111952,30.5433829126,42.9869
        114.3628617561,30.5433473781,43.3092
        114.3628139154,30.5433093696,43.5351
        114.3627729945,30.5432656519,43.7655
        114.3627302148,30.5432231383,44.0936
        114.3626797579,30.5431889967,44.3737
        114.3626313099,30.5431547316,44.7128
        114.3625872615,30.5431173695,44.9955
        114.3625436111,30.5430783292,45.3022
        114.3625014411,30.5430353140,45.6835
        114.3624563294,30.5429943654,45.9513
        114.3624065483,30.5429558624,46.2379
        114.3623488872,30.5429240527,46.5831
        114.3622939703,30.5428893203,46.9556
        114.3622417550,30.5428513880,47.3375
        114.3621894772,30.5428157873,47.6653
        114.3621380083,30.5427774612,47.8851
        114.3620875354,30.5427380072,48.1482
        114.3620373655,30.5426969048,48.4199
        114.3619878049,30.5426530488,48.5777
        114.3619373210,30.5426081684,48.7570
        114.3618894682,30.5425625538,48.7673
        114.3618427774,30.5425178844,48.7893
        114.3617974993,30.5424696707,48.7966
        114.3617551429,30.5424179680,48.7778
        114.3617165924,30.5423666563,48.6625
        114.3616770495,30.5423167548,48.4920
        114.3616380579,30.5422679584,48.3579
        114.3615999677,30.5422234985,48.1800
        114.3615581375,30.5421885133,47.9154
        114.3615110313,30.5421656217,47.7777
        114.3614617185,30.5421491760,47.6322
        114.3614117365,30.5421357011,47.5076
        114.3613627309,30.5421249658,47.4119
        114.3613144462,30.5421187541,47.2817
        114.3612675302,30.5421126385,47.1934
        114.3612237680,30.5421065874,47.0683
        114.3611807960,30.5420999602,47.0453
        114.3611389217,30.5420954376,46.9323
        114.3610941707,30.5420907877,46.8695
        114.3610400075,30.5420847787,46.9011
        114.3609781804,30.5420773225,46.9592
        114.3609129965,30.5420687249,46.9912
        114.3608437423,30.5420597236,47.0111
        114.3607724369,30.5420516798,47.0612
        114.3607011165,30.5420424446,47.1473
        114.3606313648,30.5420342398,47.2287
        114.3605612705,30.5420264571,47.2870
        114.3604887323,30.5420208375,47.3908
        114.3604141971,30.5420152788,47.5166
        114.3603383382,30.5420090494,47.6399
        114.3602607288,30.5420030069,47.7821
        114.3601824417,30.5419950223,47.9063
        114.3601035531,30.5419875718,47.9951
        114.3600244994,30.5419798322,48.1127
        114.3599457510,30.5419726278,48.2195
        114.3598701218,30.5419645497,48.3675
        114.3597945878,30.5419541778,48.4144
        114.3597162153,30.5419429884,48.4554
        114.3596352328,30.5419303369,48.5123
        114.3595519445,30.5419166807,48.5053
        114.3594663839,30.5419040506,48.5600
        114.3593805302,30.5418918044,48.6007
        114.3592946377,30.5418747207,48.6324
        114.3592086398,30.5418547143,48.6808
        114.3591238616,30.5418384896,48.7860
        114.3590377845,30.5418236348,48.8851
        114.3589516237,30.5418081892,48.9898
        114.3588674087,30.5417915733,49.0549
        114.3587879185,30.5417745490,49.0568
        114.3587117559,30.5417559252,49.0974
        114.3586387567,30.5417366920,49.1968
        114.3585679438,30.5417163193,49.2453
        114.3584951350,30.5416982484,49.2366
        114.3584212198,30.5416817432,49.2257
        114.3583474220,30.5416659911,49.2732
        114.3582721951,30.5416536792,49.2942
        114.3581957925,30.5416423676,49.3698
        114.3581208807,30.5416267098,49.4596
        114.3580488491,30.5416096566,49.6462
        114.3579773282,30.5415936777,49.7806
        114.3579074352,30.5415769375,49.8898
        114.3578414928,30.5415599847,49.9520
        114.3577849697,30.5415430968,49.9224
        114.3577377633,30.5415278333,49.8689
        114.3576949163,30.5415088566,49.7440
        114.3576500986,30.5414815391,49.5848
        114.3575989564,30.5414508351,49.1356
        114.3575447618,30.5414175142,48.7633
        114.3574849181,30.5413828209,48.1578
        114.3574224665,30.5413447312,47.5693
        114.3573583849,30.5413045936,46.9207
        114.3572965615,30.5412634321,46.3220
        114.3572379249,30.5412230854,45.6769
        114.3571864238,30.5411849592,45.0384
        114.3571387749,30.5411486895,44.4005
        114.3570953736,30.5411073584,43.7479
        114.3570598319,30.5410548267,42.9849
        114.3570387351,30.5409961043,42.1694
        114.3570297089,30.5409409718,41.4154
        114.3570235056,30.5408814058,40.7278
        114.3570194397,30.5408212467,39.9646
        114.3570164556,30.5407576929,39.2819
        114.3570125417,30.5406887213,38.5649
        114.3570090689,30.5406176696,38.0216
        114.3570081707,30.5405468443,37.4307
        114.3570067723,30.5404766022,36.8536
        114.3570037793,30.5404112468,36.3399
        114.3569991314,30.5403504463,35.9613
        114.3569924729,30.5402959709,35.5644
        114.3569886505,30.5402465871,35.2853
        114.3569841364,30.5402001008,35.0769
        114.3569737447,30.5401569173,34.8588
        114.3569562525,30.5401146819,34.6895
        114.3569327678,30.5400748369,34.5653
        114.3569045888,30.5400358272,34.4885
        114.3568702756,30.5399984296,34.4181
        114.3568321575,30.5399633138,34.3664
        114.3567888222,30.5399296845,34.3216
        114.3567436441,30.5398960084,34.3142
        114.3566956012,30.5398613556,34.3408
        114.3566446797,30.5398256947,34.4388
        114.3565917687,30.5397892072,34.5747
        114.3565369381,30.5397507064,34.7602
        114.3564774090,30.5397122878,34.9133
        114.3564136883,30.5396770573,34.9794
        114.3563447520,30.5396442999,34.9621
        114.3562698058,30.5396146706,34.9136
        114.3561896880,30.5395906333,34.9099
        114.3561052461,30.5395710508,34.9179
        114.3560184261,30.5395534998,34.8979
        114.3559303240,30.5395356281,34.8622
        114.3558418201,30.5395156043,34.8232
        114.3557553439,30.5394912442,34.8152
        114.3556712548,30.5394606166,34.8602
        114.3555892408,30.5394267482,34.9048
        114.3555109639,30.5393885737,34.9350
        114.3554369426,30.5393443133,34.9769
        114.3553666598,30.5392953206,34.9161
        114.3553007364,30.5392416653,34.9624
        114.3552392970,30.5391842541,35.0560
        114.3551809975,30.5391234663,35.1017
        114.3551275511,30.5390601751,35.1668
        114.3550772287,30.5389947159,35.1787
        114.3550303786,30.5389270882,35.1344
        114.3549881687,30.5388573524,35.1202
        114.3549466729,30.5387869125,35.1256
        114.3549072217,30.5387155863,35.0114
        114.3548693094,30.5386439978,35.0801
        114.3548319600,30.5385711694,35.0113
        114.3547968335,30.5384969336,34.9147
        114.3547619511,30.5384215302,34.7704
        114.3547270336,30.5383453746,34.6012
        114.3546939773,30.5382676945,34.2970
        114.3546621697,30.5381882167,33.9782
        114.3546332115,30.5381080204,33.6716
        114.3546063946,30.5380290282,33.3424
        114.3545826281,30.5379535393,33.0223
        114.3545638408,30.5378846140,32.7315
        114.3545446234,30.5378190990,32.4621
        114.3545229369,30.5377520659,32.1966
        114.3545024053,30.5376825872,31.9198
        114.3544856183,30.5376104227,31.7182
        114.3544654486,30.5375346871,31.4522
        114.3544400245,30.5374575868,31.1905
        114.3544117966,30.5373787396,30.8589
        114.3543815341,30.5372992861,30.5450
        114.3543487717,30.5372195224,30.1775
        114.3543130660,30.5371410118,29.8028
        114.3542739091,30.5370639778,29.4560
        114.3542304206,30.5369887744,29.0871
        114.3541824289,30.5369158043,28.7162
        114.3541294023,30.5368457482,28.3675
        114.3540710552,30.5367797244,28.0605
        114.3540085326,30.5367172572,27.7721
        114.3539429198,30.5366585255,27.4653
        114.3538758182,30.5366015125,27.2978
        114.3538075762,30.5365468861,27.1184
        114.3537379997,30.5364947041,26.9970
        114.3536696313,30.5364445577,26.8414
        114.3536051640,30.5363965815,26.6978
        114.3535482706,30.5363526188,26.5133
        114.3535033898,30.5363099776,26.3482
        114.3534732325,30.5362637359,26.1249
        114.3534585104,30.5362122771,25.9830
        114.3534597254,30.5361576564,25.8329
        114.3534731787,30.5361007129,25.7458
        114.3534865980,30.5360413511,25.6641
        114.3534916912,30.5359783656,25.5596
        114.3534872033,30.5359135850,25.4826
        114.3534715024,30.5358474823,25.4080
        114.3534450521,30.5357814271,25.3310
        114.3534069780,30.5357172203,25.2235
        114.3533623806,30.5356546864,25.1859
        114.3533139222,30.5355920926,25.0672
        114.3532640936,30.5355288443,24.9989
        114.3532127153,30.5354657491,24.9621
        114.3531591398,30.5354038797,24.9663
        114.3531026621,30.5353437763,25.0698
        114.3530412173,30.5352867718,25.1371
        114.3529742570,30.5352344862,25.0862
        114.3529061450,30.5351855765,25.0407
        114.3528386076,30.5351405231,25.0303
        114.3527727287,30.5351008776,25.0020
        114.3527035096,30.5350633333,24.9113
        114.3526283499,30.5350297695,24.7009
        114.3525493651,30.5350011135,24.4465
        114.3524717887,30.5349726441,24.2231
        114.3523972985,30.5349425242,23.9835
        114.3523275610,30.5349076750,23.7729
        114.3522668143,30.5348656170,23.5290
        114.3522166590,30.5348162072,23.4001
        114.3521761711,30.5347632700,23.3431
        114.3521443330,30.5347083289,23.3468
        114.3521218502,30.5346509094,23.3339
        114.3521059650,30.5345906363,23.3291
        114.3520974552,30.5345257125,23.3090
        114.3521056193,30.5344610057,23.3543
        114.3521244454,30.5343957467,23.4031
        114.3521366127,30.5343265771,23.4397
        114.3521325591,30.5342553130,23.5323
        114.3521163485,30.5341836852,23.5902
        114.3520915264,30.5341135015,23.6117
        114.3520597517,30.5340451811,23.5009
        114.3520247820,30.5339764707,23.3882
        114.3519923821,30.5339059829,23.2746
        114.3519610002,30.5338339316,23.2827
        114.3519331610,30.5337607865,23.2582
        114.3519097272,30.5336859806,23.2525
        114.3518975274,30.5336094660,23.2411
        114.3519008037,30.5335324792,23.2604
        114.3519162702,30.5334567636,23.3525
        114.3519446936,30.5333812429,23.4340
        114.3519790772,30.5333079277,23.4161
        114.3520141359,30.5332338270,23.4266
        114.3520496747,30.5331594706,23.5279
        114.3520847519,30.5330845620,23.6681
        114.3521195945,30.5330094619,23.7829
        114.3521561010,30.5329350263,23.9937
        114.3521938323,30.5328605129,24.3135
        114.3522319968,30.5327866752,24.6168
        114.3522703715,30.5327122640,24.8753
        114.3523047843,30.5326363116,25.1875
        114.3523248078,30.5325574527,25.4550
        114.3523320846,30.5324764774,25.7161
        114.3523307415,30.5323932084,25.9157
        114.3523286681,30.5323096510,26.0814
        114.3523244890,30.5322249282,26.0633
        114.3523227469,30.5321401277,26.0407
        114.3523220648,30.5320530095,25.9468
        114.3523197166,30.5319647029,25.8263
        114.3523171144,30.5318793544,25.6145
        114.3523136188,30.5317967717,25.4659
        114.3523117312,30.5317165507,25.2338
        114.3523102149,30.5316356473,25.0604
        114.3523114496,30.5315543555,24.8536
        114.3523152797,30.5314744940,24.6900
        114.3523179126,30.5313941651,24.5074
        114.3523133590,30.5313121624,24.3419
        114.3523057933,30.5312291042,24.1230
        114.3522999944,30.5311456941,23.8823
        114.3522982746,30.5310619819,23.7775
        114.3522965716,30.5309781529,23.7357
        114.3522997073,30.5308947074,23.7494
        114.3523028356,30.5308118162,23.8266
        114.3523054887,30.5307324522,23.9325
        114.3523080820,30.5306621254,23.9783
        114.3523100340,30.5305979130,23.9243
        114.3523091144,30.5305396898,23.5504
        114.3523072061,30.5304850880,23.0580
        114.3523034411,30.5304330080,22.4655
        114.3523036259,30.5303803695,21.8873
        114.3523019569,30.5303292238,21.1833
        114.3523008359,30.5302830739,20.3999
        114.3523024190,30.5302407656,19.6848
        114.3523008536,30.5301986052,19.0518
        114.3523000067,30.5301537244,18.7313
        114.3523004413,30.5301078612,18.5301
        114.3523029588,30.5300620091,18.4033
        114.3523034689,30.5300199836,18.2922
        114.3522996312,30.5299800578,18.2061
        114.3522960516,30.5299389341,17.8534
        114.3522943078,30.5298975550,17.5857
        114.3522921524,30.5298550509,17.5129
        114.3522889265,30.5298121877,17.6250
        114.3522799766,30.5297688215,17.9054
        114.3522643410,30.5297251917,18.2774
        114.3522425733,30.5296837718,18.2954
        114.3522238392,30.5296391973,18.3911
        114.3522111365,30.5295953230,18.7661
        114.3522037148,30.5295559672,19.1086
        114.3521944481,30.5295168057,19.2795
        114.3521844226,30.5294788877,19.5139
        114.3521710205,30.5294435261,19.6748
        114.3521564781,30.5294166241,19.6826
        114.3521409094,30.5293944626,19.5577
        114.3521163876,30.5293714737,19.3165
        114.3520839242,30.5293548560,19.0246
        114.3520469503,30.5293432975,18.8840
        114.3520097226,30.5293406630,18.8554
        114.3519772316,30.5293355515,18.7474
        114.3519438637,30.5293347638,18.5826
        114.3519088442,30.5293352867,18.6281
        114.3518723006,30.5293364575,18.6936
        114.3518281749,30.5293369884,18.6790
        114.3517794594,30.5293384325,18.6652
        114.3517294114,30.5293379630,18.8017
        114.3516798102,30.5293353838,18.9998
        114.3516270854,30.5293328196,19.1450
        114.3515760027,30.5293300333,19.3201
        114.3515236039,30.5293263930,19.6228
        114.3514724919,30.5293237779,20.1013
        114.3514287745,30.5293215225,20.8235
        114.3513943932,30.5293201047,21.4729
        114.3513590629,30.5293169037,22.1779
        114.3513212292,30.5293159735,22.9124
        114.3512810078,30.5293186250,23.5636
        114.3512382141,30.5293176364,24.1935
        114.3511892956,30.5293174141,24.8163
        114.3511403628,30.5293196665,25.3141
        114.3510951572,30.5293197502,25.6618
        114.3510484563,30.5293177575,25.9947
        114.3510026746,30.5293143579,26.3234
        114.3509603200,30.5293107925,26.6597
        114.3509204604,30.5293050212,27.0721
        114.3508785042,30.5293009689,27.4406
        114.3508383178,30.5292994723,27.8043
        114.3508050804,30.5292987336,28.0871
        114.3507789704,30.5292998598,28.3993
        114.3507553272,30.5293014438,28.6656
        114.3507237781,30.5292977421,28.9170
        114.3506803463,30.5292926682,29.0778
        114.3506310302,30.5292863161,29.0082
        114.3505769457,30.5292808767,28.9137
        114.3505182951,30.5292758909,28.8872
        114.3504575907,30.5292705627,28.9107
        114.3503942024,30.5292646071,28.9571
        114.3503282063,30.5292590122,29.0145
        114.3502593646,30.5292556778,29.0621
        114.3501892786,30.5292555082,29.1815
        114.3501194835,30.5292547595,29.3732
        114.3500529482,30.5292533708,29.5357
        114.3499949686,30.5292484752,29.7645
        114.3499632496,30.5292469028,30.2117
        114.3499488856,30.5292630925,30.6748
        114.3499522943,30.5292916641,31.1953
        114.3499603221,30.5293300042,31.7994
        114.3499672662,30.5293773771,32.3960
        114.3499717032,30.5294331183,32.8320
        114.3499715602,30.5294946928,33.3498
        114.3499662180,30.5295545901,33.8815
        114.3499602632,30.5296114192,34.3848
        114.3499553961,30.5296652739,34.9006
        114.3499537158,30.5297171209,35.3280
        114.3499500899,30.5297652689,35.7239
        114.3499429241,30.5298105057,36.1638
        114.3499399839,30.5298494146,36.5141
        114.3499372407,30.5298780521,37.0222
        114.3499398240,30.5298973304,37.1989
        114.3499532013,30.5299109996,37.3580
        114.3499748737,30.5299148068,37.3002
        114.3500053626,30.5299167354,37.2390
        114.3500409892,30.5299162002,37.1653
        114.3500781917,30.5299161078,36.9889
        114.3501119142,30.5299156724,36.9399
        114.3501433950,30.5299163243,36.9465
        114.3501772057,30.5299189272,36.8353
        114.3502103387,30.5299199919,36.8224
        114.3502412317,30.5299213379,36.7857
        114.3502656382,30.5299220208,36.6983
        114.3502775443,30.5299248893,36.6151
        114.3502818553,30.5299326641,36.5862
        114.3502801215,30.5299393553,36.5306
        114.3502788970,30.5299436242,36.4932
        114.3502790784,30.5299437747,36.4827
        114.3502789484,30.5299440290,36.4704
        114.3502781485,30.5299446927,36.4203
        114.3502779718,30.5299448448,36.3981
        114.3502780909,30.5299477672,36.4973
        114.3502779671,30.5299486385,36.5655
        114.3502778205,30.5299489116,36.6237
        114.3502776462,30.5299490094,36.6905
        114.3502774405,30.5299490566,36.7649
        114.3502772316,30.5299490749,36.8484
        114.3502770074,30.5299491022,36.9435
        114.3502767609,30.5299491610,37.0461
        114.3502765113,30.5299492277,37.1561
        114.3502762341,30.5299493377,37.2716
        114.3502759604,30.5299494560,37.3862
        114.3502756601,30.5299495904,37.5008
        114.3502753301,30.5299497593,37.6239
        114.3502749830,30.5299499247,37.7521
        114.3502746188,30.5299500865,37.8837
        114.3502742414,30.5299502593,38.0186
        114.3502738521,30.5299504382,38.1565
        114.3502734620,30.5299506178,38.2989
        114.3502730689,30.5299507860,38.4431
        114.3502726554,30.5299509595,38.5895
        114.3502722375,30.5299511441,38.7410
        114.3502718080,30.5299513277,38.8958
        114.3502713681,30.5299515042,39.0551
        114.3502709244,30.5299516859,39.2175
        114.3502704640,30.5299518807,39.3845
        114.3502700085,30.5299520895,39.5546
        114.3502695464,30.5299523170,39.7281
        114.3502690842,30.5299525530,39.9041
        114.3502686092,30.5299527826,40.0822
        114.3502681398,30.5299530171,40.2615
        114.3502676919,30.5299532787,40.4407
        114.3502672431,30.5299535306,40.6182
        114.3502667985,30.5299537887,40.7945
        114.3502663596,30.5299540454,40.9693
        114.3502659432,30.5299543359,41.1447
        114.3502655632,30.5299546300,41.3191
        114.3502651655,30.5299549314,41.4936
        114.3502647768,30.5299552288,41.6673
        114.3502644004,30.5299555487,41.8388
        114.3502640552,30.5299558636,42.0029
        114.3502637267,30.5299561757,42.1633
        114.3502633940,30.5299565462,42.3245
      </coordinates>
    </LineString>
  </Placemark>
  <Placemark><name>Start</name><styleUrl>#start</styleUrl><description>Sample epoch: 269378.000000000 s</description><Point><altitudeMode>clampToGround</altitudeMode><coordinates>114.3665903869,30.5391422650,47.1177</coordinates></Point></Placemark>
  <Placemark><name>End</name><styleUrl>#end</styleUrl><description>Sample epoch: 269996.000000000 s</description><Point><altitudeMode>clampToGround</altitudeMode><coordinates>114.3502633940,30.5299565462,42.3245</coordinates></Point></Placemark>
</Document>
</kml>
